{
  "norad_id": 62834,
  "name": "STARLINK-11520 [DTC]",
  "history": [
    {
      "epoch": "2026-03-28T15:22:21.031680Z",
      "apogee_km": 357.05651277807374,
      "perigee_km": 355.54436219586023,
      "latitude_deg": 2.1664419043540608e-05,
      "longitude_deg": 134.89042877315632,
      "height_km": 355.50392728969246,
      "semi_major_axis_km": 6734.437437486967,
      "eccentricity": 0.00011227,
      "inclination_deg": 43.0004,
      "raan_deg": 191.5361,
      "arg_perigee_deg": 318.7559,
      "mean_anomaly_deg": 41.3224,
      "mean_motion_rev_day": 15.70908096
    },
    {
      "epoch": "2026-03-30T03:59:46.812192Z",
      "apogee_km": 357.3418342096793,
      "perigee_km": 355.4857920055865,
      "latitude_deg": 3.495994322539329e-05,
      "longitude_deg": -65.16976245792918,
      "height_km": 356.0467429615907,
      "semi_major_axis_km": 6734.550813107632,
      "eccentricity": 0.0001378,
      "inclination_deg": 43.0017,
      "raan_deg": 182.3374,
      "arg_perigee_deg": 278.6575,
      "mean_anomaly_deg": 81.4137,
      "mean_motion_rev_day": 15.70868427
    },
    {
      "epoch": "2026-03-30T07:02:53.819808Z",
      "apogee_km": 357.0123279131658,
      "perigee_km": 355.5641571090164,
      "latitude_deg": 2.6331823014821664e-05,
      "longitude_deg": -111.84060890119238,
      "height_km": 355.92326151046683,
      "semi_major_axis_km": 6734.425242511091,
      "eccentricity": 0.00010752,
      "inclination_deg": 43.0004,
      "raan_deg": 181.5711,
      "arg_perigee_deg": 280.9216,
      "mean_anomaly_deg": 79.1531,
      "mean_motion_rev_day": 15.70912363
    },
    {
      "epoch": "2026-03-30T14:40:42.214080Z",
      "apogee_km": 357.17212706764803,
      "perigee_km": 355.68621238795913,
      "latitude_deg": -4.8776475613111525e-05,
      "longitude_deg": 131.47821111371556,
      "height_km": 356.1336042674868,
      "semi_major_axis_km": 6734.566169727803,
      "eccentricity": 0.00011032,
      "inclination_deg": 43.001,
      "raan_deg": 179.655,
      "arg_perigee_deg": 275.2423,
      "mean_anomaly_deg": 84.8318,
      "mean_motion_rev_day": 15.70863054
    },
    {
      "epoch": "2026-03-31T12:02:32.584992Z",
      "apogee_km": 357.5795342375095,
      "perigee_km": 355.3975155674416,
      "latitude_deg": -1.63157556471377e-05,
      "longitude_deg": 164.7750801089882,
      "height_km": 357.0169142508658,
      "semi_major_axis_km": 6734.625524902475,
      "eccentricity": 0.000162,
      "inclination_deg": 43.0016,
      "raan_deg": 174.2891,
      "arg_perigee_deg": 134.0414,
      "mean_anomaly_deg": 226.0587,
      "mean_motion_rev_day": 15.70842287
    },
    {
      "epoch": "2026-04-01T06:21:15.521472Z",
      "apogee_km": 357.7048771644577,
      "perigee_km": 354.92354881349365,
      "latitude_deg": -4.382278738832783e-05,
      "longitude_deg": -115.25569430920302,
      "height_km": 356.67933168639115,
      "semi_major_axis_km": 6734.451212988975,
      "eccentricity": 0.0002065,
      "inclination_deg": 42.9999,
      "raan_deg": 169.6893,
      "arg_perigee_deg": 244.7872,
      "mean_anomaly_deg": 115.2781,
      "mean_motion_rev_day": 15.70903276
    },
    {
      "epoch": "2026-04-02T12:52:26.770080Z",
      "apogee_km": 357.60575243466246,
      "perigee_km": 355.0221476721845,
      "latitude_deg": -2.458733396066345e-05,
      "longitude_deg": 138.0294549951631,
      "height_km": 355.9334680135806,
      "semi_major_axis_km": 6734.450950053423,
      "eccentricity": 0.00019182,
      "inclination_deg": 43.0017,
      "raan_deg": 162.0247,
      "arg_perigee_deg": 276.8263,
      "mean_anomaly_deg": 83.2386,
      "mean_motion_rev_day": 15.70903368
    }
  ]
}